{"type": "FeatureCollection", "features": [ {"type": "Feature", "properties": {"norad_id": 34432, "name": "COSMOS 2251 DEB", "group": "cosmos-2251-debris", "lat": 13.994975489241996, "lon": -94.88537282529141, "alt_km": 752.6490737532413, "timestamp": "2025-12-20T03:42:47.788561+00:00", "meta": {"OBJECT_NAME": "COSMOS 2251 DEB", "OBJECT_ID": "1993-036RZ", "EPOCH": "2025-12-19T06:32:24.354240", "MEAN_MOTION": 14.02934229, "ECCENTRICITY": 0.0181953, "INCLINATION": 73.8292, "RA_OF_ASC_NODE": 90.8154, "ARG_OF_PERICENTER": 172.489, "MEAN_ANOMALY": 219.0361, "EPHEMERIS_TYPE": 0, "CLASSIFICATION_TYPE": "U", "NORAD_CAT_ID": 34432, "ELEMENT_SET_NO": 999, "REV_AT_EPOCH": 85776, "BSTAR": 0.00076949, "MEAN_MOTION_DOT": 1.356e-05, "MEAN_MOTION_DDOT": 0}, "tle": {"line1": "1 34432U 93036RZ  25353.27250410  .00001356  00000+0  76949-3 0  9998", "line2": "2 34432  73.8292  90.8154 0181953 172.4890 219.0361 14.02934229857765"}}, "geometry": {"type": "Point", "coordinates": [-94.88537282529141, 13.994975489241996]}}, {"type": "Feature", "properties": {"norad_id": 34433, "name": "COSMOS 2251 DEB", "group": "cosmos-2251-debris", "lat": 73.30856434493651, "lon": -111.18700675760505, "alt_km": 952.2860201116309, "timestamp": "2025-12-20T03:42:47.788571+00:00", "meta": {"OBJECT_NAME": "COSMOS 2251 DEB", "OBJECT_ID": "1993-036SA", "EPOCH": "2025-12-19T10:15:55.503936", "MEAN_MOTION": 14.12879998, "ECCENTRICITY": 0.0152655, "INCLINATION": 74.0099, "RA_OF_ASC_NODE": 143.0939, "ARG_OF_PERICENTER": 279.7612, "MEAN_ANOMALY": 78.6318, "EPHEMERIS_TYPE": 0, "CLASSIFICATION_TYPE": "U", "NORAD_CAT_ID": 34433, "ELEMENT_SET_NO": 999, "REV_AT_EPOCH": 86044, "BSTAR": 0.00077538, "MEAN_MOTION_DOT": 1.585e-05, "MEAN_MOTION_DDOT": 0}, "tle": {"line1": "1 34433U 93036SA  25353.42772574  .00001585  00000+0  77538-3 0  9995", "line2": "2 34433  74.0099 143.0939 0152655 279.7612  78.6318 14.12879998860448"}}, "geometry": {"type": "Point", "coordinates": [-111.18700675760505, 73.30856434493651]}}, {"type": "Feature", "properties": {"norad_id": 34434, "name": "COSMOS 2251 DEB", "group": "cosmos-2251-debris", "lat": 73.99312759263358, "lon": 82.43328134165273, "alt_km": 776.1387739470883, "timestamp": "2025-12-20T03:42:47.788582+00:00", "meta": {"OBJECT_NAME": "COSMOS 2251 DEB", "OBJECT_ID": "1993-036SB", "EPOCH": "2025-12-19T20:42:34.058880", "MEAN_MOTION": 13.89850674, "ECCENTRICITY": 0.0274021, "INCLINATION": 74.0622, "RA_OF_ASC_NODE": 358.0104, "ARG_OF_PERICENTER": 133.6203, "MEAN_ANOMALY": 297.5751, "EPHEMERIS_TYPE": 0, "CLASSIFICATION_TYPE": "U", "NORAD_CAT_ID": 34434, "ELEMENT_SET_NO": 999, "REV_AT_EPOCH": 84065, "BSTAR": 0.0016658, "MEAN_MOTION_DOT": 2.751e-05, "MEAN_MOTION_DDOT": 0}, "tle": {"line1": "1 34434U 93036SB  25353.86289420  .00002751  00000+0  16658-2 0  9998", "line2": "2 34434  74.0622 358.0104 0274021 133.6203 297.5751 13.89850674840656"}}, "geometry": {"type": "Point", "coordinates": [82.43328134165273, 73.99312759263358]}}, {"type": "Feature", "properties": {"norad_id": 34446, "name": "COSMOS 2251 DEB", "group": "cosmos-2251-debris", "lat": 59.94430708130811, "lon": 73.01380302071459, "alt_km": 736.9190995530862, "timestamp": "2025-12-20T03:42:47.788592+00:00", "meta": {"OBJECT_NAME": "COSMOS 2251 DEB", "OBJECT_ID": "1993-036SP", "EPOCH": "2025-12-19T14:09:47.225088", "MEAN_MOTION": 14.4936018, "ECCENTRICITY": 0.0050826, "INCLINATION": 74.0418, "RA_OF_ASC_NODE": 44.4351, "ARG_OF_PERICENTER": 180.8442, "MEAN_ANOMALY": 179.2641, "EPHEMERIS_TYPE": 0, "CLASSIFICATION_TYPE": "U", "NORAD_CAT_ID": 34446, "ELEMENT_SET_NO": 999, "REV_AT_EPOCH": 88793, "BSTAR": 9.0912e-05, "MEAN_MOTION_DOT": 3.25e-06, "MEAN_MOTION_DDOT": 0}, "tle": {"line1": "1 34446U 93036SP  25353.59012992  .00000325  00000+0  90912-4 0  9991", "line2": "2 34446  74.0418  44.4351 0050826 180.8442 179.2641 14.49360180887937"}}, "geometry": {"type": "Point", "coordinates": [73.01380302071459, 59.94430708130811]}}, {"type": "Feature", "properties": {"norad_id": 34449, "name": "COSMOS 2251 DEB", "group": "cosmos-2251-debris", "lat": -8.32794736080447, "lon": 53.19825214559678, "alt_km": 588.6462068466826, "timestamp": "2025-12-20T03:42:47.788613+00:00", "meta": {"OBJECT_NAME": "COSMOS 2251 DEB", "OBJECT_ID": "1993-036SS", "EPOCH": "2025-12-19T05:31:05.790432", "MEAN_MOTION": 14.95222496, "ECCENTRICITY": 0.0022749, "INCLINATION": 74.0328, "RA_OF_ASC_NODE": 57.4655, "ARG_OF_PERICENTER": 95.9476, "MEAN_ANOMALY": 319.8524, "EPHEMERIS_TYPE": 0, "CLASSIFICATION_TYPE": "U", "NORAD_CAT_ID": 34449, "ELEMENT_SET_NO": 999, "REV_AT_EPOCH": 88790, "BSTAR": 0.0015083, "MEAN_MOTION_DOT": 0.00016676, "MEAN_MOTION_DDOT": 0}, "tle": {"line1": "1 34449U 93036SS  25353.22992813  .00016676  00000+0  15083-2 0  9993", "line2": "2 34449  74.0328  57.4655 0022749  95.9476 319.8524 14.95222496887904"}}, "geometry": {"type": "Point", "coordinates": [53.19825214559678, -8.32794736080447]}}, {"type": "Feature", "properties": {"norad_id": 34451, "name": "COSMOS 2251 DEB", "group": "cosmos-2251-debris", "lat": -18.252034701604764, "lon": 67.49438449149808, "alt_km": 588.978145549393, "timestamp": "2025-12-20T03:42:47.788625+00:00", "meta": {"OBJECT_NAME": "COSMOS 2251 DEB", "OBJECT_ID": "1993-036SU", "EPOCH": "2025-12-19T05:19:40.196928", "MEAN_MOTION": 14.95927956, "ECCENTRICITY": 0.0023833, "INCLINATION": 74.0467, "RA_OF_ASC_NODE": 74.7893, "ARG_OF_PERICENTER": 90.4585, "MEAN_ANOMALY": 269.933, "EPHEMERIS_TYPE": 0, "CLASSIFICATION_TYPE": "U", "NORAD_CAT_ID": 34451, "ELEMENT_SET_NO": 999, "REV_AT_EPOCH": 88732, "BSTAR": 0.0016212, "MEAN_MOTION_DOT": 0.00018267, "MEAN_MOTION_DDOT": 0}, "tle": {"line1": "1 34451U 93036SU  25353.22199302  .00018267  00000+0  16212-2 0  9991", "line2": "2 34451  74.0467  74.7893 0023833  90.4585 269.9330 14.95927956887322"}}, "geometry": {"type": "Point", "coordinates": [67.49438449149808, -18.252034701604764]}}, {"type": "Feature", "properties": {"norad_id": 34452, "name": "COSMOS 2251 DEB", "group": "cosmos-2251-debris", "lat": 40.97822182873712, "lon": -26.92996969715813, "alt_km": 538.4996751845838, "timestamp": "2025-12-20T03:42:47.788635+00:00", "meta": {"OBJECT_NAME": "COSMOS 2251 DEB", "OBJECT_ID": "1993-036SV", "EPOCH": "2025-12-19T16:33:37.741824", "MEAN_MOTION": 15.11852468, "ECCENTRICITY": 0.0065152, "INCLINATION": 74.0322, "RA_OF_ASC_NODE": 168.4334, "ARG_OF_PERICENTER": 243.2246, "MEAN_ANOMALY": 246.2809, "EPHEMERIS_TYPE": 0, "CLASSIFICATION_TYPE": "U", "NORAD_CAT_ID": 34452, "ELEMENT_SET_NO": 999, "REV_AT_EPOCH": 90767, "BSTAR": 0.00056254, "MEAN_MOTION_DOT": 0.00010095, "MEAN_MOTION_DDOT": 0}, "tle": {"line1": "1 34452U 93036SV  25353.69002016  .00010095  00000+0  56254-3 0  9990", "line2": "2 34452  74.0322 168.4334 0065152 243.2246 246.2809 15.11852468907670"}}, "geometry": {"type": "Point", "coordinates": [-26.92996969715813, 40.97822182873712]}}, {"type": "Feature", "properties": {"norad_id": 34454, "name": "COSMOS 2251 DEB", "group": "cosmos-2251-debris", "lat": 25.056889792515598, "lon": -88.33887009267207, "alt_km": 748.8890444801227, "timestamp": "2025-12-20T03:42:47.788646+00:00", "meta": {"OBJECT_NAME": "COSMOS 2251 DEB", "OBJECT_ID": "1993-036SX", "EPOCH": "2025-12-19T17:34:50.013984", "MEAN_MOTION": 14.38819172, "ECCENTRICITY": 0.0035811, "INCLINATION": 74.0588, "RA_OF_ASC_NODE": 264.7592, "ARG_OF_PERICENTER": 325.9584, "MEAN_ANOMALY": 33.9273, "EPHEMERIS_TYPE": 0, "CLASSIFICATION_TYPE": "U", "NORAD_CAT_ID": 34454, "ELEMENT_SET_NO": 999, "REV_AT_EPOCH": 88168, "BSTAR": 0.00017333, "MEAN_MOTION_DOT": 5.11e-06, "MEAN_MOTION_DDOT": 0}, "tle": {"line1": "1 34454U 93036SX  25353.73252331  .00000511  00000+0  17333-3 0  9991", "line2": "2 34454  74.0588 264.7592 0035811 325.9584  33.9273 14.38819172881685"}}, "geometry": {"type": "Point", "coordinates": [-88.33887009267207, 25.056889792515598]}}, {"type": "Feature", "properties": {"norad_id": 34459, "name": "COSMOS 2251 DEB", "group": "cosmos-2251-debris", "lat": 72.99039051761417, "lon": -49.84886635986925, "alt_km": 981.4393302776225, "timestamp": "2025-12-20T03:42:47.788657+00:00", "meta": {"OBJECT_NAME": "COSMOS 2251 DEB", "OBJECT_ID": "1993-036TC", "EPOCH": "2025-12-19T10:10:13.091232", "MEAN_MOTION": 14.00510026, "ECCENTRICITY": 0.0192116, "INCLINATION": 74.0787, "RA_OF_ASC_NODE": 242.4962, "ARG_OF_PERICENTER": 310.7776, "MEAN_ANOMALY": 47.6821, "EPHEMERIS_TYPE": 0, "CLASSIFICATION_TYPE": "U", "NORAD_CAT_ID": 34459, "ELEMENT_SET_NO": 999, "REV_AT_EPOCH": 85805, "BSTAR": 0.00028413, "MEAN_MOTION_DOT": 4.7e-06, "MEAN_MOTION_DDOT": 0}, "tle": {"line1": "1 34459U 93036TC  25353.42376263  .00000470  00000+0  28413-3 0  9998", "line2": "2 34459  74.0787 242.4962 0192116 310.7776  47.6821 14.00510026858053"}}, "geometry": {"type": "Point", "coordinates": [-49.84886635986925, 72.99039051761417]}}, {"type": "Feature", "properties": {"norad_id": 34464, "name": "COSMOS 2251 DEB", "group": "cosmos-2251-debris", "lat": 10.931937773741845, "lon": 65.68385722685746, "alt_km": 489.0729883411914, "timestamp": "2025-12-20T03:42:47.788667+00:00", "meta": {"OBJECT_NAME": "COSMOS 2251 DEB", "OBJECT_ID": "1993-036TH", "EPOCH": "2025-12-19T15:05:33.885024", "MEAN_MOTION": 15.27991349, "ECCENTRICITY": 0.001486, "INCLINATION": 73.9894, "RA_OF_ASC_NODE": 63.623, "ARG_OF_PERICENTER": 245.1324, "MEAN_ANOMALY": 114.8333, "EPHEMERIS_TYPE": 0, "CLASSIFICATION_TYPE": "U", "NORAD_CAT_ID": 34464, "ELEMENT_SET_NO": 999, "REV_AT_EPOCH": 89945, "BSTAR": 0.0016369, "MEAN_MOTION_DOT": 0.00045089, "MEAN_MOTION_DDOT": 0}, "tle": {"line1": "1 34464U 93036TH  25353.62886441  .00045089  00000+0  16369-2 0  9991", "line2": "2 34464  73.9894  63.6230 0014860 245.1324 114.8333 15.27991349899451"}}, "geometry": {"type": "Point", "coordinates": [65.68385722685746, 10.931937773741845]}}]}